FLOCK 3P-10             
1 41974U 17008AC  17345.88508224  .00001725  00000-0  74988-4 0  9993
2 41974  97.4758  46.6866 0006704 295.5722  64.4821 15.23635436 45396
